{
    "links": {
        "self": "http://www.neowsapp.com/rest/v1/neo/3607822?api_key=iIulBulltgU6a56xZRHN4H3l9WmuAYTsLGpBGhQ2"
    },
    "id": "3607822",
    "neo_reference_id": "3607822",
    "name": "(2012 QM14)",
    "designation": "2012 QM14",
    "nasa_jpl_url": "http://ssd.jpl.nasa.gov/sbdb.cgi?sstr=3607822",
    "absolute_magnitude_h": 25.7,
    "estimated_diameter": {
        "kilometers": {
            "estimated_diameter_min": 0.0192555078,
            "estimated_diameter_max": 0.0430566244
        },
        "meters": {
            "estimated_diameter_min": 19.2555078188,
            "estimated_diameter_max": 43.0566244241
        },
        "miles": {
            "estimated_diameter_min": 0.0119648141,
            "estimated_diameter_max": 0.0267541378
        },
        "feet": {
            "estimated_diameter_min": 63.1742402722,
            "estimated_diameter_max": 141.2618956756
        }
    },
    "is_potentially_hazardous_asteroid": false,
    "close_approach_data": [
        {
            "close_approach_date": "1985-06-17",
            "close_approach_date_full": "1985-Jun-17 07:26",
            "epoch_date_close_approach": 487841160000,
            "relative_velocity": {
                "kilometers_per_second": "9.4580196316",
                "kilometers_per_hour": "34048.8706737097",
                "miles_per_hour": "21156.6441138948"
            },
            "miss_distance": {
                "astronomical": "0.2276072212",
                "lunar": "88.5392090468",
                "kilometers": "34049555.488138844",
                "miles": "21157412.6980662872"
            },
            "orbiting_body": "Earth"
        },
        {
            "close_approach_date": "2012-08-07",
            "close_approach_date_full": "2012-Aug-07 16:33",
            "epoch_date_close_approach": 1344357180000,
            "relative_velocity": {
                "kilometers_per_second": "11.3814819676",
                "kilometers_per_hour": "40973.3350834388",
                "miles_per_hour": "25459.2370133734"
            },
            "miss_distance": {
                "astronomical": "0.0137136218",
                "lunar": "5.3345988802",
                "kilometers": "2051528.611265566",
                "miles": "1274760.7675981708"
            },
            "orbiting_body": "Earth"
        },
        {
            "close_approach_date": "2046-02-02",
            "close_approach_date_full": "2046-Feb-02 05:21",
            "epoch_date_close_approach": 2401161660000,
            "relative_velocity": {
                "kilometers_per_second": "20.059227091",
                "kilometers_per_hour": "72213.2175275744",
                "miles_per_hour": "44870.485079842"
            },
            "miss_distance": {
                "astronomical": "0.2805341558",
                "lunar": "109.1277866062",
                "kilometers": "41967312.169928146",
                "miles": "26077278.5629185748"
            },
            "orbiting_body": "Earth"
        }
    ],
    "orbital_data": {
        "orbit_id": "7",
        "orbit_determination_date": "2017-04-06 08:49:12",
        "first_observation_date": "2012-08-17",
        "last_observation_date": "2012-08-23",
        "data_arc_in_days": 6,
        "observations_used": 12,
        "orbit_uncertainty": "8",
        "minimum_orbit_intersection": ".00958751",
        "jupiter_tisserand_invariant": "5.152",
        "epoch_osculation": "2456158.5",
        "eccentricity": ".3867346795765692",
        "semi_major_axis": "1.221914643359194",
        "inclination": ".918196223535459",
        "ascending_node_longitude": "4.038027081298972",
        "orbital_period": "493.3552237530203",
        "perihelion_distance": ".7493578752897583",
        "perihelion_argument": "225.3920409326717",
        "aphelion_distance": "1.694471411428629",
        "perihelion_time": "2456086.900659080359",
        "mean_anomaly": "52.24584942060819",
        "mean_motion": ".7296973512541959",
        "equinox": "J2000",
        "orbit_class": {
            "orbit_class_type": "APO",
            "orbit_class_description": "Near-Earth asteroid orbits which cross the Earth’s orbit similar to that of 1862 Apollo",
            "orbit_class_range": "a (semi-major axis) > 1.0 AU; q (perihelion) < 1.017 AU"
        }
    },
    "is_sentry_object": false
}